[{"OBJECT_NAME":"LEMUR-2-VALHALLA","OBJECT_ID":"2024-022B","EPOCH":"2026-03-09T12:58:09.060096","MEAN_MOTION":15.36522305,"ECCENTRICITY":0.00112289,"INCLINATION":97.4228,"RA_OF_ASC_NODE":277.4862,"ARG_OF_PERICENTER":109.8773,"MEAN_ANOMALY":250.3682,"EPHEMERIS_TYPE":0,"CLASSIFICATION_TYPE":"U","NORAD_CAT_ID":58900,"ELEMENT_SET_NO":999,"REV_AT_EPOCH":11695,"BSTAR":0.00053647225,"MEAN_MOTION_DOT":0.00019103,"MEAN_MOTION_DDOT":0},{"OBJECT_NAME":"STARLINK-36751","OBJECT_ID":"2026-026J","EPOCH":"2026-03-09T22:00:01.999584","MEAN_MOTION":15.47731113,"ECCENTRICITY":0.00019784,"INCLINATION":97.2848,"RA_OF_ASC_NODE":123.4812,"ARG_OF_PERICENTER":62.4737,"MEAN_ANOMALY":103.0444,"EPHEMERIS_TYPE":0,"CLASSIFICATION_TYPE":"U","NORAD_CAT_ID":67729,"ELEMENT_SET_NO":999,"REV_AT_EPOCH":535,"BSTAR":-0.042164217,"MEAN_MOTION_DOT":-0.01953188,"MEAN_MOTION_DDOT":0}]
